GSAT0210 (GALILEO 13)   
1 41550U 16030B   23309.12721376 -.00000025  00000+0  00000+0 0  9997
2 41550  55.4768 247.9741 0003274 298.0960  61.8656  1.70473411 46387
THAICOM 8               
1 41552U 16031A   23310.81230083 -.00000114  00000+0  00000+0 0  9997
2 41552   0.0754  58.7236 0001566 219.6243 138.3204  1.00271305 27156
ZIYUAN 3-2 (ZY 3-2)     
1 41556U 16033A   23311.17616512  .00017128  00000+0  76872-3 0  9994
2 41556  97.4812  23.3988 0006563 240.7312 119.3268 15.21235572413096
COSMOS 2517 (GEO-IK 2)  
1 41579U 16034A   23311.18724900  .00000099  00000+0  12423-3 0  9993
2 41579  99.2106 321.2479 0000777  77.2608 282.8635 13.85901403375625
INTELSAT 31 (IS-31)     
1 41581U 16035A   23309.46679550 -.00000147  00000+0  00000+0 0  9994
2 41581   0.0143 224.5240 0001735 321.1776 291.7368  1.00272244 27121
BEIDOU-2 G7             
1 41586U 16037A   23310.84355125 -.00000346  00000+0  00000+0 0  9995
2 41586   1.3765  65.0892 0008608 316.4086  78.5504  1.00275005 27231
ABS-2A (MONGOLSAT-1)    
1 41588U 16038A   23311.01577174 -.00000076  00000+0  00000+0 0  9998
2 41588   0.0137 274.5751 0001287 259.8457 311.9412  1.00267671 27132
EUTELSAT 117 WEST B     
1 41589U 16038B   23311.13013882 -.00000004  00000+0  00000+0 0  9994
2 41589   0.0128 116.0144 0000158 359.8384 220.0993  1.00273108 27142
BRISAT                  
1 41591U 16039A   23310.88591030 -.00000189  00000+0  00000+0 0  9999
2 41591   0.0186 269.9340 0002128 312.0073 293.3402  1.00270904 27059
ECHOSTAR 18             
1 41592U 16039B   23309.16440844 -.00000279  00000+0  00000+0 0  9995
2 41592   0.0112 252.0258 0001512 347.4380 162.5296  1.00270544 27046
CARTOSAT-2C             
1 41599U 16040A   23311.14125005  .00011654  00000+0  55239-3 0  9990
2 41599  97.4192   9.0571 0013208 210.4037 149.6433 15.19382459409016
SKYSAT-C1               
1 41601U 16040C   23310.76244701  .00025257  00000+0  83619-3 0  9993
2 41601  97.0962  16.6687 0008872 113.8623 246.3549 15.31258635411985
GHGSAT-D                
1 41602U 16040D   23311.08690525  .00043062  00000+0  96890-3 0  9998
2 41602  97.1382 346.8172 0007416 111.7585 248.4453 15.43158378410428
LAPAN-A3                
1 41603U 16040E   23311.16996657  .00005825  00000+0  24715-3 0  9995
2 41603  97.1581 330.1403 0012856 163.1409 197.0258 15.23391283409256
BIROS                   
1 41604U 16040F   23311.07912219  .00019021  00000+0  61293-3 0  9993
2 41604  97.1503 341.6455 0011423 122.8261 237.4083 15.32161127409956
M3MSAT                  
1 41605U 16040G   23311.07913086  .00014866  00000+0  48942-3 0  9995
2 41605  97.1502 339.1480 0011037 137.9401 222.2690 15.31527938409793
MUOS-5                  
1 41622U 16041A   23310.53163493 -.00000152  00000+0  00000+0 0  9997
2 41622   4.4167 297.6896 0199506 249.0136 305.2031  1.00271856 27521
SJ 16-02                
1 41634U 16043A   23311.14170474  .00003069  00000+0  33564-3 0  9991
2 41634  75.0012 276.0589 0008560 205.4385 154.6381 14.88175468399111
TIANTONG-1 1            
1 41725U 16048A   23310.85605177 -.00000311  00000+0  00000+0 0  9990
2 41725   2.4032  21.3303 0005986 285.1897 148.8821  1.00273327 26715
GAOFEN-3                
1 41727U 16049A   23311.10681337  .00000283  00000+0  99029-4 0  9995
2 41727  98.4083 317.0598 0000838 119.3558 240.7715 14.42221354381263
JCSAT-16                
1 41729U 16050A   23310.88972983 -.00000244  00000+0  00000+0 0  9997
2 41729   0.0484  89.9836 0000857   8.1755  51.9774  1.00270834 26512
QSS (MOZI)              
1 41731U 16051A   23311.15368697  .00014584  00000+0  45665-3 0  9994
2 41731  97.3142 219.7608 0009371 311.8521  48.1921 15.33162421402478
USA 270                 
1 41744U 16052A   23296.11675622 -.00000294  00000+0  00000+0 0  9990
2 41744   1.6992  89.5096 0003557 187.7040 257.7818  1.00131614 18423
USA 271                 
1 41745U 16052B   23299.87044354  .00000152  00000+0  00000+0 0  9991
2 41745   1.6813  89.4173 0002828 162.1014 134.3005  1.00170526  9062
INTELSAT 36 (IS-36)     
1 41747U 16053A   23309.63452080 -.00000021  00000+0  00000+0 0  9995
2 41747   0.0139 315.1434 0002444  55.5907 330.8192  1.00271761 26373
INTELSAT 33E (IS-33E)   
1 41748U 16053B   23310.86368687  .00000056  00000+0  00000+0 0  9999
2 41748   0.0116 271.6631 0001796 329.5652 175.5046  1.00271502 26683
INSAT-3DR               
1 41752U 16054A   23310.81230083 -.00000071  00000+0  00000+0 0  9996
2 41752   0.0958  88.3054 0013784 178.3877 145.5043  1.00272390 26256
PERUSAT 1               
1 41770U 16058A   23311.15466271  .00001270  00000+0  28291-3 0  9995
2 41770  98.2028  22.4424 0001127  92.2664 267.8664 14.58579370380175
SKYSAT-C4               
1 41771U 16058B   23310.90161138  .00022628  00000+0  69553-3 0  9998
2 41771  97.0475   4.1242 0006468  96.9258 263.2722 15.33677000398983
SKYSAT-C5               
1 41772U 16058C   23310.90377635  .00023904  00000+0  67735-3 0  9998
2 41772  97.1956   6.2622 0002060 143.6490 216.4895 15.36253014397388
SKYSAT-C2               
1 41773U 16058D   23310.71973200  .00023770  00000+0  79675-3 0  9995
2 41773  97.0495   3.9234 0001918  75.4327 284.7127 15.30905363398945
SKYSAT-C3               
1 41774U 16058E   23310.73693144  .00034798  00000+0  84506-3 0  9995
2 41774  97.0485   8.0501 0004675 188.8469 171.2697 15.40922688399221
PISAT                   
1 41784U 16059B   23311.09051493  .00003102  00000+0  58194-3 0  9991
2 41784  97.8574 338.1802 0031066   4.6906 355.4583 14.65113268379988
ALSAT 1B                
1 41785U 16059C   23311.11803796  .00001164  00000+0  19905-3 0  9999
2 41785  97.8460 343.1642 0010678  50.6620 309.5531 14.70617701380411
ALSAT 2B                
1 41786U 16059D   23311.19367615  .00002745  00000+0  48782-3 0  9994
2 41786  98.1201  10.3429 0001477  58.6447 301.4902 14.67964180380805
PATHFINDER 1            
1 41787U 16059E   23311.03529664  .00001871  00000+0  35622-3 0  9990
2 41787  97.8540 338.4345 0029834   1.9257 358.2056 14.64902476380027
SCATSAT 1               
1 41790U 16059H   23311.11866667  .00000829  00000+0  21906-3 0  9992
2 41790  98.2537 352.6203 0005993  81.2926 278.8948 14.51348866376695
GSAT-18                 
1 41793U 16060A   23310.81230083 -.00000071  00000+0  00000+0 0  9998
2 41793   0.0634  89.6182 0002061 140.5332 182.0566  1.00272368 25970
SKY MUSTER 2 (NBN1B)    
1 41794U 16060B   23310.32751824 -.00000239  00000+0  00000+0 0  9992
2 41794   0.0131 271.2796 0001537 313.1970  83.5323  1.00271878 25955
HIMAWARI-9              
1 41836U 16064A   23311.03591025 -.00000267  00000+0  00000+0 0  9998
2 41836   0.0017 330.3678 0001091 299.8726 289.4606  1.00271909 25748
SHIJIAN-17 (SJ-17)      
1 41838U 16065A   23310.83870016 -.00000099  00000+0  00000+0 0  9991
2 41838   3.3123  83.9731 0004268 158.2482 265.7659  1.00272764 25656
XPNAV-1                 
1 41841U 16066A   23311.17659193  .00021254  00000+0  62933-3 0  9997
2 41841  97.3963 321.7149 0009640 308.0137  52.0235 15.34856277388829
XIAOXIANG 1             
1 41842U 16066B   23311.10442115  .00044461  00000+0  91956-3 0  9997
2 41842  97.3776 327.2131 0006413 280.4712  79.5814 15.45653643389317
PINA 2B                 
1 41844U 16066D   23311.11066176  .04129151  24403-5  15392-2 0  9991
2 41844  97.3382 337.6341 0005439 234.3421 125.7364 16.24475003390093
CAS-2T & KS-1Q          
1 41847U 16066G   23311.17362754  .00004908  00000+0  72589-3 0  9992
2 41847  98.4894  18.9858 0358500 128.1142 235.2947 14.40302137367381
RAVAN                   
1 41849U 16067B   23310.97514578  .00017653  00000+0  11319-2 0  9999
2 41849  98.0510 111.7793 0016057  68.2473 292.0461 15.08472851382276
CELTEE 1                
1 41850U 16067C   23310.68126451  .00012823  00000+0  94965-3 0  9991
2 41850  98.0812 104.6138 0001297 118.6794 241.4561 15.03281094381813
OPTICUBE 04             
1 41851U 16067D   23310.93313928  .00006322  00000+0  50158-3 0  9990
2 41851  98.0561 102.3075 0016702  91.4049 268.9088 15.00780213381731
AEROCUBE 8D             
1 41852U 16067E   23311.00498297  .00011024  00000+0  80325-3 0  9997
2 41852  98.0844 104.2399 0006320 128.4127 231.7666 15.03923681381819
AEROCUBE 8C             
1 41853U 16067F   23310.67475653  .00014861  00000+0  10825-2 0  9990
2 41853  98.0659 103.0547 0010116  74.0094 286.2244 15.03830197381752
PROMETHEUS 2-1          
1 41854U 16067G   23310.97713560  .00020835  00000+0  13109-2 0  9992
2 41854  98.0842 107.7311 0016092  94.7149 265.5916 15.09128228381999
PROMETHEUS 2-3          
1 41855U 16067H   23311.17074515  .00022005  00000+0  13855-2 0  9995
2 41855  98.0765 107.6458 0013827 103.1576 257.1195 15.09118600382021
YUNHAI 1                
1 41857U 16068A   23311.17655018  .00000771  00000+0  29757-3 0  9996
2 41857  98.5933 314.0310 0006335 308.6409  51.4208 14.33043900365341
GSAT0207 (GALILEO 15)   
1 41859U 16069A   23309.96175415  .00000070  00000+0  00000+0 0  9999
2 41859  54.9908 127.5341 0001554 308.2961  51.7278  1.70474401 43130
GSAT0212 (GALILEO 16)   
1 41860U 16069B   23310.40291783  .00000073  00000+0  00000+0 0  9992
2 41860  54.9883 127.5187 0001640  35.2484 324.8016  1.70474678 43393
GSAT0213 (GALILEO 17)   
1 41861U 16069C   23309.59630318  .00000067  00000+0  00000+0 0  9995
2 41861  54.9903 127.5471 0001799 253.5158 106.5012  1.70473269 43241
GSAT0214 (GALILEO 18)   
1 41862U 16069D   23308.57040979  .00000059  00000+0  00000+0 0  9992
2 41862  54.9881 127.5696 0000853 241.7913 118.2338  1.70473214 43357
GOES 16                 
1 41866U 16071A   23309.29911747 -.00000245  00000+0  00000+0 0  9997
2 41866   0.0317 281.0751 0001313 350.7092 164.9782  1.00270651 25529
TIANLIAN 1-04           
1 41869U 16072A   23310.61993844  .00000037  00000+0  00000+0 0  9995
2 41869   0.1274 273.2596 0028862 239.0447 293.2665  1.00271986 25759
